STARLINK-35629          
1 66127U 25237P   25311.25001157 -.01894806  00000+0 -14932-1 0  9991
2 66127  53.1594 255.9295 0001107  91.1672  56.8585 15.74094912  3779
STARLINK-35612          
1 66128U 25237Q   25311.25001157 -.02001324  00000+0 -15489-1 0  9996
2 66128  53.1596 255.9253 0001085  70.7738  79.1353 15.74152414  3770
STARLINK-35632          
1 66129U 25237R   25311.25001157 -.01994874  00000+0 -15435-1 0  9998
2 66129  53.1595 255.9209 0001167  83.3214  68.5055 15.74148598  3770
STARLINK-35637          
1 66130U 25237S   25311.25001157 -.01999229  00000+0 -15470-1 0  9998
2 66130  53.1595 255.9170 0001351  44.0830 109.6569 15.74150723  3772
STARLINK-35630          
1 66131U 25237T   25311.25001157 -.01940428  00000+0 -15315-1 0  9994
2 66131  53.1597 255.9130 0001260  47.8490 107.8037 15.74142731  3773
STARLINK-34412          
1 66132U 25237U   25311.25001157 -.01931309  00000+0 -15241-1 0  9991
2 66132  53.1595 255.9090 0001709  67.7343  89.8625 15.74123923  3687
STARLINK-35520          
1 66133U 25237V   25311.25001157 -.01992316  00000+0 -15415-1 0  9990
2 66133  53.1598 255.9051 0001237  87.2799  72.2205 15.74143262  3774
STARLINK-35525          
1 66134U 25237W   25311.25001157 -.01936004  00000+0 -15279-1 0  9991
2 66134  53.1598 255.9010 0001470 122.7660  38.6469 15.74134378  3777
STARLINK-34852          
1 66135U 25237X   25311.25001157 -.01999324  00000+0 -15471-1 0  9990
2 66135  53.1597 255.8970 0001287  45.6934 117.6303 15.74150944  3732
STARLINK-35592          
1 66136U 25237Y   25311.25001157 -.01994247  00000+0 -15431-1 0  9996
2 66136  53.1598 255.8928 0001107  86.3092  78.9372 15.74146809  3779
STARLINK-35576          
1 66137U 25237Z   25311.25001157 -.01937087  00000+0 -15291-1 0  9990
2 66137  53.1601 255.8883 0001268  95.6458  71.5242 15.74132957  3776
STARLINK-35623          
1 66138U 25237AA  25311.25001157 -.01945138  00000+0 -15354-1 0  9997
2 66138  53.1599 255.8850 0001533  54.0910 114.9800 15.74145453  3771
