CCSDS_OMM_VERS = 2.0
CREATION_DATE  = 
ORIGINATOR     = 

OBJECT_NAME    = STARLINK-35629
OBJECT_ID      = 2025-237P
CENTER_NAME    = EARTH
REF_FRAME      = TEME
TIME_SYSTEM    = UTC
MEAN_ELEMENT_THEORY = SGP/SGP4

EPOCH          = 2025-11-07T06:00:00.999648
MEAN_MOTION    = 15.74094912
ECCENTRICITY   = .00011075
INCLINATION    = 53.1594
RA_OF_ASC_NODE = 255.9295
ARG_OF_PERICENTER = 91.1672
MEAN_ANOMALY   = 56.8585

EPHEMERIS_TYPE = 0
CLASSIFICATION_TYPE = U
NORAD_CAT_ID   = 66127
ELEMENT_SET_NO = 999
REV_AT_EPOCH   = 377
BSTAR          = -.14931604E-1
MEAN_MOTION_DOT = -.1894806E-1
MEAN_MOTION_DDOT = 0

CCSDS_OMM_VERS = 2.0
CREATION_DATE  = 
ORIGINATOR     = 

OBJECT_NAME    = STARLINK-35612
OBJECT_ID      = 2025-237Q
CENTER_NAME    = EARTH
REF_FRAME      = TEME
TIME_SYSTEM    = UTC
MEAN_ELEMENT_THEORY = SGP/SGP4

EPOCH          = 2025-11-07T06:00:00.999648
MEAN_MOTION    = 15.74152414
ECCENTRICITY   = .00010855
INCLINATION    = 53.1596
RA_OF_ASC_NODE = 255.9253
ARG_OF_PERICENTER = 70.7738
MEAN_ANOMALY   = 79.1353

EPHEMERIS_TYPE = 0
CLASSIFICATION_TYPE = U
NORAD_CAT_ID   = 66128
ELEMENT_SET_NO = 999
REV_AT_EPOCH   = 377
BSTAR          = -.15489328E-1
MEAN_MOTION_DOT = -.2001324E-1
MEAN_MOTION_DDOT = 0

CCSDS_OMM_VERS = 2.0
CREATION_DATE  = 
ORIGINATOR     = 

OBJECT_NAME    = STARLINK-35632
OBJECT_ID      = 2025-237R
CENTER_NAME    = EARTH
REF_FRAME      = TEME
TIME_SYSTEM    = UTC
MEAN_ELEMENT_THEORY = SGP/SGP4

EPOCH          = 2025-11-07T06:00:00.999648
MEAN_MOTION    = 15.74148598
ECCENTRICITY   = .00011673
INCLINATION    = 53.1595
RA_OF_ASC_NODE = 255.9209
ARG_OF_PERICENTER = 83.3214
MEAN_ANOMALY   = 68.5055

EPHEMERIS_TYPE = 0
CLASSIFICATION_TYPE = U
NORAD_CAT_ID   = 66129
ELEMENT_SET_NO = 999
REV_AT_EPOCH   = 377
BSTAR          = -.15434767E-1
MEAN_MOTION_DOT = -.1994874E-1
MEAN_MOTION_DDOT = 0

CCSDS_OMM_VERS = 2.0
CREATION_DATE  = 
ORIGINATOR     = 

OBJECT_NAME    = STARLINK-35637
OBJECT_ID      = 2025-237S
CENTER_NAME    = EARTH
REF_FRAME      = TEME
TIME_SYSTEM    = UTC
MEAN_ELEMENT_THEORY = SGP/SGP4

EPOCH          = 2025-11-07T06:00:00.999648
MEAN_MOTION    = 15.74150723
ECCENTRICITY   = .00013511
INCLINATION    = 53.1595
RA_OF_ASC_NODE = 255.9170
ARG_OF_PERICENTER = 44.0830
MEAN_ANOMALY   = 109.6569

EPHEMERIS_TYPE = 0
CLASSIFICATION_TYPE = U
NORAD_CAT_ID   = 66130
ELEMENT_SET_NO = 999
REV_AT_EPOCH   = 377
BSTAR          = -.15470166E-1
MEAN_MOTION_DOT = -.1999229E-1
MEAN_MOTION_DDOT = 0

CCSDS_OMM_VERS = 2.0
CREATION_DATE  = 
ORIGINATOR     = 

OBJECT_NAME    = STARLINK-35630
OBJECT_ID      = 2025-237T
CENTER_NAME    = EARTH
REF_FRAME      = TEME
TIME_SYSTEM    = UTC
MEAN_ELEMENT_THEORY = SGP/SGP4

EPOCH          = 2025-11-07T06:00:00.999648
MEAN_MOTION    = 15.74142731
ECCENTRICITY   = .00012609
INCLINATION    = 53.1597
RA_OF_ASC_NODE = 255.9130
ARG_OF_PERICENTER = 47.8490
MEAN_ANOMALY   = 107.8037

EPHEMERIS_TYPE = 0
CLASSIFICATION_TYPE = U
NORAD_CAT_ID   = 66131
ELEMENT_SET_NO = 999
REV_AT_EPOCH   = 377
BSTAR          = -.15315463E-1
MEAN_MOTION_DOT = -.1940428E-1
MEAN_MOTION_DDOT = 0

CCSDS_OMM_VERS = 2.0
CREATION_DATE  = 
ORIGINATOR     = 

OBJECT_NAME    = STARLINK-34412
OBJECT_ID      = 2025-237U
CENTER_NAME    = EARTH
REF_FRAME      = TEME
TIME_SYSTEM    = UTC
MEAN_ELEMENT_THEORY = SGP/SGP4

EPOCH          = 2025-11-07T06:00:00.999648
MEAN_MOTION    = 15.74123923
ECCENTRICITY   = .00017099
INCLINATION    = 53.1595
RA_OF_ASC_NODE = 255.9090
ARG_OF_PERICENTER = 67.7343
MEAN_ANOMALY   = 89.8625

EPHEMERIS_TYPE = 0
CLASSIFICATION_TYPE = U
NORAD_CAT_ID   = 66132
ELEMENT_SET_NO = 999
REV_AT_EPOCH   = 368
BSTAR          = -.15240643E-1
MEAN_MOTION_DOT = -.1931309E-1
MEAN_MOTION_DDOT = 0

CCSDS_OMM_VERS = 2.0
CREATION_DATE  = 
ORIGINATOR     = 

OBJECT_NAME    = STARLINK-35520
OBJECT_ID      = 2025-237V
CENTER_NAME    = EARTH
REF_FRAME      = TEME
TIME_SYSTEM    = UTC
MEAN_ELEMENT_THEORY = SGP/SGP4

EPOCH          = 2025-11-07T06:00:00.999648
MEAN_MOTION    = 15.74143262
ECCENTRICITY   = .00012377
INCLINATION    = 53.1598
RA_OF_ASC_NODE = 255.9051
ARG_OF_PERICENTER = 87.2799
MEAN_ANOMALY   = 72.2205

EPHEMERIS_TYPE = 0
CLASSIFICATION_TYPE = U
NORAD_CAT_ID   = 66133
ELEMENT_SET_NO = 999
REV_AT_EPOCH   = 377
BSTAR          = -.15415452E-1
MEAN_MOTION_DOT = -.1992316E-1
MEAN_MOTION_DDOT = 0

CCSDS_OMM_VERS = 2.0
CREATION_DATE  = 
ORIGINATOR     = 

OBJECT_NAME    = STARLINK-35525
OBJECT_ID      = 2025-237W
CENTER_NAME    = EARTH
REF_FRAME      = TEME
TIME_SYSTEM    = UTC
MEAN_ELEMENT_THEORY = SGP/SGP4

EPOCH          = 2025-11-07T06:00:00.999648
MEAN_MOTION    = 15.74134378
ECCENTRICITY   = .00014709
INCLINATION    = 53.1598
RA_OF_ASC_NODE = 255.9010
ARG_OF_PERICENTER = 122.7660
MEAN_ANOMALY   = 38.6469

EPHEMERIS_TYPE = 0
CLASSIFICATION_TYPE = U
NORAD_CAT_ID   = 66134
ELEMENT_SET_NO = 999
REV_AT_EPOCH   = 377
BSTAR          = -.15278742E-1
MEAN_MOTION_DOT = -.1936004E-1
MEAN_MOTION_DDOT = 0

CCSDS_OMM_VERS = 2.0
CREATION_DATE  = 
ORIGINATOR     = 

OBJECT_NAME    = STARLINK-34852
OBJECT_ID      = 2025-237X
CENTER_NAME    = EARTH
REF_FRAME      = TEME
TIME_SYSTEM    = UTC
MEAN_ELEMENT_THEORY = SGP/SGP4

EPOCH          = 2025-11-07T06:00:00.999648
MEAN_MOTION    = 15.74150944
ECCENTRICITY   = .00012879
INCLINATION    = 53.1597
RA_OF_ASC_NODE = 255.8970
ARG_OF_PERICENTER = 45.6934
MEAN_ANOMALY   = 117.6303

EPHEMERIS_TYPE = 0
CLASSIFICATION_TYPE = U
NORAD_CAT_ID   = 66135
ELEMENT_SET_NO = 999
REV_AT_EPOCH   = 373
BSTAR          = -.1547132E-1
MEAN_MOTION_DOT = -.1999324E-1
MEAN_MOTION_DDOT = 0

CCSDS_OMM_VERS = 2.0
CREATION_DATE  = 
ORIGINATOR     = 

OBJECT_NAME    = STARLINK-35592
OBJECT_ID      = 2025-237Y
CENTER_NAME    = EARTH
REF_FRAME      = TEME
TIME_SYSTEM    = UTC
MEAN_ELEMENT_THEORY = SGP/SGP4

EPOCH          = 2025-11-07T06:00:00.999648
MEAN_MOTION    = 15.74146809
ECCENTRICITY   = .00011076
INCLINATION    = 53.1598
RA_OF_ASC_NODE = 255.8928
ARG_OF_PERICENTER = 86.3092
MEAN_ANOMALY   = 78.9372

EPHEMERIS_TYPE = 0
CLASSIFICATION_TYPE = U
NORAD_CAT_ID   = 66136
ELEMENT_SET_NO = 999
REV_AT_EPOCH   = 377
BSTAR          = -.15430915E-1
MEAN_MOTION_DOT = -.1994247E-1
MEAN_MOTION_DDOT = 0

CCSDS_OMM_VERS = 2.0
CREATION_DATE  = 
ORIGINATOR     = 

OBJECT_NAME    = STARLINK-35576
OBJECT_ID      = 2025-237Z
CENTER_NAME    = EARTH
REF_FRAME      = TEME
TIME_SYSTEM    = UTC
MEAN_ELEMENT_THEORY = SGP/SGP4

EPOCH          = 2025-11-07T06:00:00.999648
MEAN_MOTION    = 15.74132957
ECCENTRICITY   = .00012687
INCLINATION    = 53.1601
RA_OF_ASC_NODE = 255.8883
ARG_OF_PERICENTER = 95.6458
MEAN_ANOMALY   = 71.5242

EPHEMERIS_TYPE = 0
CLASSIFICATION_TYPE = U
NORAD_CAT_ID   = 66137
ELEMENT_SET_NO = 999
REV_AT_EPOCH   = 377
BSTAR          = -.15291345E-1
MEAN_MOTION_DOT = -.1937087E-1
MEAN_MOTION_DDOT = 0

CCSDS_OMM_VERS = 2.0
CREATION_DATE  = 
ORIGINATOR     = 

OBJECT_NAME    = STARLINK-35623
OBJECT_ID      = 2025-237AA
CENTER_NAME    = EARTH
REF_FRAME      = TEME
TIME_SYSTEM    = UTC
MEAN_ELEMENT_THEORY = SGP/SGP4

EPOCH          = 2025-11-07T06:00:00.999648
MEAN_MOTION    = 15.74145453
ECCENTRICITY   = .00015338
INCLINATION    = 53.1599
RA_OF_ASC_NODE = 255.8850
ARG_OF_PERICENTER = 54.0910
MEAN_ANOMALY   = 114.9800

EPHEMERIS_TYPE = 0
CLASSIFICATION_TYPE = U
NORAD_CAT_ID   = 66138
ELEMENT_SET_NO = 999
REV_AT_EPOCH   = 377
BSTAR          = -.15354458E-1
MEAN_MOTION_DOT = -.1945138E-1
MEAN_MOTION_DDOT = 0

